[{"OBJECT_NAME":"STARLINK-1046","OBJECT_ID":"2019-074AQ","EPOCH":"2025-09-07T06:02:58.243200","MEAN_MOTION":15.06404068,"ECCENTRICITY":0.00018607,"INCLINATION":53.0558,"RA_OF_ASC_NODE":330.1098,"ARG_OF_PERICENTER":76.6437,"MEAN_ANOMALY":283.476,"EPHEMERIS_TYPE":0,"CLASSIFICATION_TYPE":"U","NORAD_CAT_ID":44751,"ELEMENT_SET_NO":999,"REV_AT_EPOCH":32054,"BSTAR":3.275888e-6,"MEAN_MOTION_DOT":-2.33e-6,"MEAN_MOTION_DDOT":0},{"OBJECT_NAME":"STARLINK-1047","OBJECT_ID":"2019-074AR","EPOCH":"2025-09-07T05:23:59.754624","MEAN_MOTION":15.27701612,"ECCENTRICITY":0.00042329,"INCLINATION":53.0716,"RA_OF_ASC_NODE":279.958,"ARG_OF_PERICENTER":21.7401,"MEAN_ANOMALY":338.3776,"EPHEMERIS_TYPE":0,"CLASSIFICATION_TYPE":"U","NORAD_CAT_ID":44752,"ELEMENT_SET_NO":999,"REV_AT_EPOCH":32125,"BSTAR":0.00054676718,"MEAN_MOTION_DOT":0.0001468,"MEAN_MOTION_DDOT":0},{"OBJECT_NAME":"STARLINK-1048","OBJECT_ID":"2019-074AS","EPOCH":"2025-09-07T06:40:07.539456","MEAN_MOTION":15.06421928,"ECCENTRICITY":0.0001101,"INCLINATION":53.0548,"RA_OF_ASC_NODE":289.9925,"ARG_OF_PERICENTER":81.8966,"MEAN_ANOMALY":278.2148,"EPHEMERIS_TYPE":0,"CLASSIFICATION_TYPE":"U","NORAD_CAT_ID":44753,"ELEMENT_SET_NO":999,"REV_AT_EPOCH":32110,"BSTAR":-0.00059583232,"MEAN_MOTION_DOT":-9.15e-5,"MEAN_MOTION_DDOT":0},{"OBJECT_NAME":"STARLINK-1053","OBJECT_ID":"2019-074AX","EPOCH":"2025-09-07T05:41:26.130336","MEAN_MOTION":15.54124192,"ECCENTRICITY":0.00031313,"INCLINATION":53.0417,"RA_OF_ASC_NODE":268.0591,"ARG_OF_PERICENTER":38.5173,"MEAN_ANOMALY":321.606,"EPHEMERIS_TYPE":0,"CLASSIFICATION_TYPE":"U","NORAD_CAT_ID":44758,"ELEMENT_SET_NO":999,"REV_AT_EPOCH":32142,"BSTAR":0.00066100994,"MEAN_MOTION_DOT":0.00043461,"MEAN_MOTION_DDOT":0},{"OBJECT_NAME":"STARLINK-1054","OBJECT_ID":"2019-074AY","EPOCH":"2025-09-07T02:38:57.981984","MEAN_MOTION":15.60774133,"ECCENTRICITY":0.00102784,"INCLINATION":53.0468,"RA_OF_ASC_NODE":299.2164,"ARG_OF_PERICENTER":318.9668,"MEAN_ANOMALY":41.0571,"EPHEMERIS_TYPE":0,"CLASSIFICATION_TYPE":"U","NORAD_CAT_ID":44759,"ELEMENT_SET_NO":999,"REV_AT_EPOCH":31861,"BSTAR":0.0020377706,"MEAN_MOTION_DOT":0.00176469,"MEAN_MOTION_DDOT":0},{"OBJECT_NAME":"STARLINK-1056","OBJECT_ID":"2019-074BA","EPOCH":"2025-09-07T00:00:02.000160","MEAN_MOTION":15.72391215,"ECCENTRICITY":0.00115387,"INCLINATION":53.0448,"RA_OF_ASC_NODE":290.3887,"ARG_OF_PERICENTER":344.7152,"MEAN_ANOMALY":121.7967,"EPHEMERIS_TYPE":0,"CLASSIFICATION_TYPE":"U","NORAD_CAT_ID":44761,"ELEMENT_SET_NO":999,"REV_AT_EPOCH":597,"BSTAR":0.0014443391,"MEAN_MOTION_DOT":0.00200675,"MEAN_MOTION_DDOT":0},{"OBJECT_NAME":"STARLINK-1057","OBJECT_ID":"2019-074BB","EPOCH":"2025-09-07T06:00:00.999648","MEAN_MOTION":15.87561997,"ECCENTRICITY":0.0005313,"INCLINATION":53.0445,"RA_OF_ASC_NODE":261.7133,"ARG_OF_PERICENTER":341.9091,"MEAN_ANOMALY":167.4704,"EPHEMERIS_TYPE":0,"CLASSIFICATION_TYPE":"U","NORAD_CAT_ID":44762,"ELEMENT_SET_NO":999,"REV_AT_EPOCH":605,"BSTAR":0.0011701487,"MEAN_MOTION_DOT":0.00329396,"MEAN_MOTION_DDOT":0},{"OBJECT_NAME":"STARLINK-1060","OBJECT_ID":"2019-074BE","EPOCH":"2025-09-07T06:00:00.999648","MEAN_MOTION":15.14718365,"ECCENTRICITY":0.00015003,"INCLINATION":53.0542,"RA_OF_ASC_NODE":309.8874,"ARG_OF_PERICENTER":115.6727,"MEAN_ANOMALY":120.5883,"EPHEMERIS_TYPE":0,"CLASSIFICATION_TYPE":"U","NORAD_CAT_ID":44765,"ELEMENT_SET_NO":999,"REV_AT_EPOCH":584,"BSTAR":0.0028439251,"MEAN_MOTION_DOT":0.00053397,"MEAN_MOTION_DDOT":0},{"OBJECT_NAME":"STARLINK-1063","OBJECT_ID":"2019-074BH","EPOCH":"2025-09-06T12:16:06.873024","MEAN_MOTION":15.0642962,"ECCENTRICITY":0.00016764,"INCLINATION":53.0564,"RA_OF_ASC_NODE":333.4289,"ARG_OF_PERICENTER":87.8353,"MEAN_ANOMALY":272.2828,"EPHEMERIS_TYPE":0,"CLASSIFICATION_TYPE":"U","NORAD_CAT_ID":44768,"ELEMENT_SET_NO":999,"REV_AT_EPOCH":32044,"BSTAR":0.00084361235,"MEAN_MOTION_DOT":0.00012316,"MEAN_MOTION_DDOT":0},{"OBJECT_NAME":"STARLINK-1067","OBJECT_ID":"2019-074BL","EPOCH":"2025-09-07T05:31:07.250592","MEAN_MOTION":15.06398176,"ECCENTRICITY":0.00020991,"INCLINATION":53.0556,"RA_OF_ASC_NODE":330.2058,"ARG_OF_PERICENTER":77.2835,"MEAN_ANOMALY":282.8389,"EPHEMERIS_TYPE":0,"CLASSIFICATION_TYPE":"U","NORAD_CAT_ID":44771,"ELEMENT_SET_NO":999,"REV_AT_EPOCH":32054,"BSTAR":-0.00019155189,"MEAN_MOTION_DOT":-3.134e-5,"MEAN_MOTION_DDOT":0},{"OBJECT_NAME":"STARLINK-1068","OBJECT_ID":"2019-074BM","EPOCH":"2025-09-06T21:20:09.120480","MEAN_MOTION":15.06410803,"ECCENTRICITY":0.00012676,"INCLINATION":53.0548,"RA_OF_ASC_NODE":311.737,"ARG_OF_PERICENTER":89.3824,"MEAN_ANOMALY":270.731,"EPHEMERIS_TYPE":0,"CLASSIFICATION_TYPE":"U","NORAD_CAT_ID":44772,"ELEMENT_SET_NO":999,"REV_AT_EPOCH":32076,"BSTAR":0.00039418279,"MEAN_MOTION_DOT":5.596e-5,"MEAN_MOTION_DDOT":0},{"OBJECT_NAME":"STARLINK-1098","OBJECT_ID":"2020-001D","EPOCH":"2025-09-05T07:29:52.534176","MEAN_MOTION":16.08873952,"ECCENTRICITY":0.00052243,"INCLINATION":53.0415,"RA_OF_ASC_NODE":43.9726,"ARG_OF_PERICENTER":340.0748,"MEAN_ANOMALY":20.0081,"EPHEMERIS_TYPE":0,"CLASSIFICATION_TYPE":"U","NORAD_CAT_ID":44917,"ELEMENT_SET_NO":999,"REV_AT_EPOCH":31267,"BSTAR":0.00081043328,"MEAN_MOTION_DOT":0.0072656,"MEAN_MOTION_DDOT":0.00029019109},{"OBJECT_NAME":"STARLINK-1104","OBJECT_ID":"2020-001J","EPOCH":"2025-09-05T08:30:19.706400","MEAN_MOTION":16.11145771,"ECCENTRICITY":0.00037663,"INCLINATION":53.0427,"RA_OF_ASC_NODE":44.7765,"ARG_OF_PERICENTER":330.7957,"MEAN_ANOMALY":29.2866,"EPHEMERIS_TYPE":0,"CLASSIFICATION_TYPE":"U","NORAD_CAT_ID":44922,"ELEMENT_SET_NO":999,"REV_AT_EPOCH":31266,"BSTAR":0.00081184326,"MEAN_MOTION_DOT":0.00843054,"MEAN_MOTION_DDOT":0.00041632662},{"OBJECT_NAME":"STARLINK-1112","OBJECT_ID":"2020-001M","EPOCH":"2025-09-07T04:44:43.742400","MEAN_MOTION":15.44913993,"ECCENTRICITY":0.00055563,"INCLINATION":53.0527,"RA_OF_ASC_NODE":64.4962,"ARG_OF_PERICENTER":118.2075,"MEAN_ANOMALY":241.9492,"EPHEMERIS_TYPE":0,"CLASSIFICATION_TYPE":"U","NORAD_CAT_ID":44925,"ELEMENT_SET_NO":999,"REV_AT_EPOCH":31255,"BSTAR":0.0020707979,"MEAN_MOTION_DOT":0.00099811,"MEAN_MOTION_DDOT":0},{"OBJECT_NAME":"STARLINK-1114","OBJECT_ID":"2020-001P","EPOCH":"2025-09-07T06:13:35.287680","MEAN_MOTION":15.06399555,"ECCENTRICITY":0.00012859,"INCLINATION":53.0543,"RA_OF_ASC_NODE":90.0696,"ARG_OF_PERICENTER":85.9381,"MEAN_ANOMALY":274.1755,"EPHEMERIS_TYPE":0,"CLASSIFICATION_TYPE":"U","NORAD_CAT_ID":44927,"ELEMENT_SET_NO":999,"REV_AT_EPOCH":31220,"BSTAR":4.6555414e-5,"MEAN_MOTION_DOT":4.12e-6,"MEAN_MOTION_DDOT":0},{"OBJECT_NAME":"STARLINK-1123","OBJECT_ID":"2020-001S","EPOCH":"2025-09-07T06:34:49.832832","MEAN_MOTION":15.06408495,"ECCENTRICITY":0.0001305,"INCLINATION":53.054,"RA_OF_ASC_NODE":90.0007,"ARG_OF_PERICENTER":95.8337,"MEAN_ANOMALY":264.2801,"EPHEMERIS_TYPE":0,"CLASSIFICATION_TYPE":"U","NORAD_CAT_ID":44930,"ELEMENT_SET_NO":999,"REV_AT_EPOCH":31220,"BSTAR":0.00015414672,"MEAN_MOTION_DOT":2.016e-5,"MEAN_MOTION_DDOT":0}]
