STARLINK-1046           
1 44751U 19074AQ  25250.25206300 -.00000233  00000+0  32759-5 0  9993
2 44751  53.0558 330.1098 0001860  76.6437 283.4760 15.06404068320549
STARLINK-1047           
1 44752U 19074AR  25250.22499716  .00014680  00000+0  54677-3 0  9997
2 44752  53.0716 279.9580 0004232  21.7401 338.3776 15.27701612321254
STARLINK-1048           
1 44753U 19074AS  25250.27786504 -.00009150  00000+0 -59583-3 0  9996
2 44753  53.0548 289.9925 0001101  81.8966 278.2148 15.06421928321102
STARLINK-1053           
1 44758U 19074AX  25250.23710799  .00043461  00000+0  66101-3 0  9995
2 44758  53.0417 268.0591 0003131  38.5173 321.6060 15.54124192321420
STARLINK-1054           
1 44759U 19074AY  25250.11039331  .00176469  00000+0  20378-2 0  9999
2 44759  53.0468 299.2164 0010278 318.9668  41.0571 15.60774133318613
STARLINK-1056           
1 44761U 19074BA  25250.00002315  .00200675  00000+0  14443-2 0  9995
2 44761  53.0448 290.3887 0011538 344.7152 121.7967 15.72391215  5979
STARLINK-1057           
1 44762U 19074BB  25250.25001157  .00329396  00000+0  11701-2 0  9992
2 44762  53.0445 261.7133 0005313 341.9091 167.4704 15.87561997  6056
STARLINK-1060           
1 44765U 19074BE  25250.25001157  .00053397  00000+0  28439-2 0  9996
2 44765  53.0542 309.8874 0001500 115.6727 120.5883 15.14718365  5846
STARLINK-1063           
1 44768U 19074BH  25249.51119066  .00012316  00000+0  84361-3 0  9998
2 44768  53.0564 333.4289 0001676  87.8353 272.2828 15.06429620320449
STARLINK-1067           
1 44771U 19074BL  25250.22994503 -.00003134  00000+0 -19155-3 0  9998
2 44771  53.0556 330.2058 0002099  77.2835 282.8389 15.06398176320542
STARLINK-1068           
1 44772U 19074BM  25249.88899445  .00005596  00000+0  39418-3 0  9994
2 44772  53.0548 311.7370 0001267  89.3824 270.7310 15.06410803320769
STARLINK-1098           
1 44917U 20001D   25248.31241359  .00726560  29019-3  81043-3 0  9996
2 44917  53.0415  43.9726 0005224 340.0748  20.0081 16.08873952312674
STARLINK-1104           
1 44922U 20001J   25248.35439475  .00843054  41633-3  81184-3 0  9994
2 44922  53.0427  44.7765 0003766 330.7957  29.2866 16.11145771312668
STARLINK-1112           
1 44925U 20001M   25250.19772850  .00099811  00000+0  20708-2 0  9996
2 44925  53.0527  64.4962 0005556 118.2075 241.9492 15.44913993312559
STARLINK-1114           
1 44927U 20001P   25250.25943620  .00000412  00000+0  46555-4 0  9999
2 44927  53.0543  90.0696 0001285  85.9381 274.1755 15.06399555312205
STARLINK-1123           
1 44930U 20001S   25250.27418788  .00002016  00000+0  15415-3 0  9999
2 44930  53.0540  90.0007 0001305  95.8337 264.2801 15.06408495312202
